OBJECT_NAME,OBJECT_ID,EPOCH,MEAN_MOTION,ECCENTRICITY,INCLINATION,RA_OF_ASC_NODE,ARG_OF_PERICENTER,MEAN_ANOMALY,EPHEMERIS_TYPE,CLASSIFICATION_TYPE,NORAD_CAT_ID,ELEMENT_SET_NO,REV_AT_EPOCH,BSTAR,MEAN_MOTION_DOT,MEAN_MOTION_DDOT
TJS-5,2020-002A,2026-07-17T18:28:33.737088,1.00271863,.0008031,0.0709,77.1695,338.3782,264.6711,0,U,44978,999,2401,0,-.351E-5,0
GSAT-30,2020-005A,2026-07-17T15:22:41.981952,1.00272932,.0003197,0.0414,239.9663,209.5349,159.6221,0,U,45026,999,2381,0,-.174E-5,0
EUTELSAT KONNECT,2020-005B,2026-07-17T15:01:06.890016,1.00270473,.0001966,0.0667,93.7632,149.1671,284.9886,0,U,45027,999,2464,0,.4E-6,0
JCSAT-17,2020-013A,2026-07-17T07:04:36.620256,1.00271713,.0003147,5.3923,357.1562,127.5157,52.6074,0,U,45245,999,2353,0,-.324E-5,0
GEO-KOMPSAT-2B,2020-013B,2026-07-17T15:35:37.580064,1.00270882,.0000313,0.0188,240.0248,311.6374,105.9677,0,U,45246,999,2358,0,0,0
BEIDOU-3 G2,2020-017A,2026-07-17T15:50:06.999072,1.00272721,.0001913,2.9249,47.8427,58.6833,146.4918,0,U,45344,999,2356,0,-.15E-5,0
AEHF-6 (USA 298),2020-022B,2026-07-17T15:38:22.317216,1.00270567,.0041954,2.4827,301.5541,15.4304,350.8340,0,U,45465,999,2332,0,-.306E-5,0
BEIDOU-3 G3,2020-040A,2026-07-17T16:34:13.311840,1.00275238,.0002218,2.5205,67.4905,308.6424,278.4253,0,U,45807,999,2237,0,-.364E-5,0
APSTAR-6D,2020-045A,2026-07-17T15:37:14.924352,1.00282834,.0003023,0.0417,92.3752,357.0622,214.3584,0,U,45863,999,2216,0,-.326E-5,0
KOREASAT 116,2020-048A,2026-07-17T17:07:38.648064,1.00267308,.000104,0.0182,314.3942,190.2545,163.9266,0,U,45920,999,2194,0,-.371E-5,0
EXPRESS 103,2020-053A,2026-07-17T18:49:17.334624,1.00271831,.0000488,0.0406,244.2007,187.2824,242.9286,0,U,45985,999,2195,0,-.289E-5,0
EXPRESS 80,2020-053B,2026-07-16T23:00:49.742784,1.00276846,.00016534,0.0172,31.6048,196.4103,131.9709,0,U,45986,999,2192,0,0,0
BSAT-4B,2020-056A,2026-07-17T08:02:38.858208,1.00271224,.0004348,0.0407,141.6153,347.3846,36.6373,0,U,46112,999,2169,0,-.36E-5,0
MEV-2,2020-056B,2026-07-17T14:58:44.616000,1.00270229,.000022,0.0556,255.0697,5.8120,258.2367,0,U,46113,999,8102,0,-.21E-6,0
GALAXY 30 (G-30),2020-056C,2026-07-17T14:23:25.503072,1.00270960,.0002254,0.0225,59.8270,58.8872,267.5676,0,U,46114,999,2159,0,0,0
GAOFEN-13 01,2020-071A,2026-07-17T17:34:38.712864,1.00277046,.0044455,0.4752,86.0992,119.9495,111.3333,0,U,46610,999,2122,0,-.372E-5,0
TIANTONG-1 2,2020-082A,2026-07-17T12:09:18.894816,1.00272600,.0001257,0.7551,332.0988,128.7405,141.7506,0,U,46916,999,2095,0,-.365E-5,0
LUCAS (JDRS-1),2020-089A,2026-07-17T17:08:35.354112,1.00269702,.0001669,0.0686,268.2633,180.9376,194.2611,0,U,47202,999,2072,0,-.244E-5,0
SXM-7,2020-096A,2026-07-17T07:44:11.535936,1.00270775,.0003501,0.0271,97.9904,21.3110,206.7257,0,U,47240,999,774,0,-.215E-5,0
CMS-01,2020-099A,2026-07-17T14:03:38.597760,1.00270753,.0003398,0.0810,90.8071,175.0160,323.4716,0,U,47256,999,2050,0,-.174E-5,0
TURKSAT 5A,2021-001A,2026-07-17T15:07:51.242880,1.00271962,.0000159,0.0157,72.0706,223.5806,257.6712,0,U,47306,999,2027,0,.145E-5,0
TIANTONG-1 3,2021-003A,2026-07-17T18:47:40.307424,1.00270282,.0003199,1.7338,341.4184,143.3270,174.2861,0,U,47321,999,2026,0,-.162E-5,0
TJS-6,2021-010A,2026-07-17T14:16:38.756928,1.00273247,.0003071,0.1736,261.3888,241.2900,185.3667,0,U,47613,999,2011,0,.33E-6,0
SBIRS GEO-5 (USA 315),2021-042A,2026-07-17T15:11:45.691008,1.00271363,.0001501,5.0658,329.3601,152.1752,135.6530,0,U,48618,999,1907,0,-.275E-5,0
FENGYUN 4B,2021-047A,2026-07-17T16:43:07.008960,1.00278349,.0006867,0.2267,80.0461,272.8504,297.9386,0,U,48808,999,1887,0,-.339E-5,0
SXM-8,2021-049A,2026-07-17T14:34:46.913952,1.00268602,.0005847,0.0193,51.3182,340.3427,37.2988,0,U,48838,999,1888,0,-.214E-5,0
TIANLIAN 1-05,2021-063A,2026-07-17T16:41:47.148576,1.00273205,.0001106,1.6707,80.4436,87.4798,34.8850,0,U,49011,999,1838,0,.98E-6,0
STAR ONE D2,2021-069A,2026-07-17T14:38:39.043104,1.00269367,.0002501,0.0093,20.1111,117.7182,307.1855,0,U,49055,999,1824,0,0,0
EUTELSAT QUANTUM,2021-069B,2026-07-17T16:30:38.657088,1.00272629,.0002112,0.0095,27.4944,82.4519,120.8963,0,U,49056,999,1823,0,.117E-5,0
ZHONGXING-2E,2021-071A,2026-07-17T15:59:10.061088,1.00270341,.0001175,0.0172,238.4800,260.1785,134.6978,0,U,49062,999,1834,0,0,0
TJS-7,2021-077A,2026-07-17T14:30:39.809088,1.00272928,.0002925,0.2783,263.8334,112.4716,37.2544,0,U,49115,999,985,0,-.133E-5,0
CHINASAT 9B,2021-080A,2026-07-17T18:53:17.269152,1.00279615,.0002709,0.0520,245.4964,245.8201,188.9949,0,U,49125,999,1795,0,-.323E-5,0
